[{"OBJECT_NAME":"OBJECT L","OBJECT_ID":"2025-155L","EPOCH":"2026-03-09T22:37:59.438784","MEAN_MOTION":15.35424042,"ECCENTRICITY":0.00089978,"INCLINATION":97.4398,"RA_OF_ASC_NODE":38.3429,"ARG_OF_PERICENTER":138.4507,"MEAN_ANOMALY":221.7422,"EPHEMERIS_TYPE":0,"CLASSIFICATION_TYPE":"U","NORAD_CAT_ID":64886,"ELEMENT_SET_NO":999,"REV_AT_EPOCH":6567,"BSTAR":0.0010049858,"MEAN_MOTION_DOT":0.00034663,"MEAN_MOTION_DDOT":0},{"OBJECT_NAME":"STARLINK-36708","OBJECT_ID":"2026-025W","EPOCH":"2026-03-09T22:00:01.999584","MEAN_MOTION":15.50345873,"ECCENTRICITY":0.0001698,"INCLINATION":97.2843,"RA_OF_ASC_NODE":180.5299,"ARG_OF_PERICENTER":61.6948,"MEAN_ANOMALY":67.7006,"EPHEMERIS_TYPE":0,"CLASSIFICATION_TYPE":"U","NORAD_CAT_ID":67713,"ELEMENT_SET_NO":999,"REV_AT_EPOCH":595,"BSTAR":-0.032195086,"MEAN_MOTION_DOT":-0.01637708,"MEAN_MOTION_DDOT":0}]
